NORAD_CAT_ID,OBJECT_NAME,OBJECT_TYPE,EPOCH,MEAN_MOTION,ECCENTRICITY,INCLINATION,RA_OF_ASC_NODE,ARG_OF_PERICENTER,MEAN_ANOMALY,BSTAR,MEAN_MOTION_DOT,MEAN_MOTION_DDOT,TLE_LINE0,TLE_LINE1,TLE_LINE2,SEMIMAJOR_AXIS,PERIOD,APOGEE,PERIGEE,DECAYED
54099.0,STARLINK-5198,PAYLOAD,2023-09-16 11:23:25,15.08833212,0.0001395,53.2172,77.3406,88.1244,271.9908,0.00023869,3.512e-05,0.0,0 STARLINK-5198,1 54099U 22136BA  23259.47459813  .00003512  00000-0  23869-3 0  9995,2 54099  53.2172  77.3406 0001395  88.1244 271.9908 15.08833212 50331,6917.901,95.438,540.731,538.801,0.0
54099.0,STARLINK-5198,PAYLOAD,2023-09-16 19:20:20,15.08843225,0.0001424,53.2164,75.8535,86.3321,273.7834,0.00028709,4.284e-05,0.0,0 STARLINK-5198,1 54099U 22136BA  23259.80579609  .00004284  00000-0  28709-3 0  9993,2 54099  53.2164  75.8535 0001424  86.3321 273.7834 15.08843225 50857,6917.871,95.437,540.721,538.75,0.0
54099.0,STARLINK-5198,PAYLOAD,2023-09-17 12:49:35,15.08845763,0.0001443,53.2167,72.5829,89.2102,270.9056,0.00012187,1.652e-05,0.0,0 STARLINK-5198,1 54099U 22136BA  23260.53443427  .00001652  00000-0  12187-3 0  9992,2 54099  53.2167  72.5829 0001443  89.2102 270.9056 15.08845763 50494,6917.863,95.437,540.726,538.73,0.0
54099.0,STARLINK-5198,PAYLOAD,2023-09-18 11:04:59,15.08842236,0.0001532,53.2171,68.4198,82.37,277.7467,3.1921e-05,2.2e-06,0.0,0 STARLINK-5198,1 54099U 22136BA  23261.46179527  .00000220  00000-0  31921-4 0  9990,2 54099  53.2171  68.4198 0001532  82.3700 277.7467 15.08842236 51101,6917.874,95.437,540.798,538.679,0.0
54099.0,STARLINK-5198,PAYLOAD,2023-09-18 17:26:31,15.08844865,0.0001398,53.2179,67.23,86.7541,273.3612,7.8472e-05,9.61e-06,0.0,0 STARLINK-5198,1 54099U 22136BA  23261.72675431  .00000961  00000-0  78472-4 0  9998,2 54099  53.2179  67.2300 0001398  86.7541 273.3612 15.08844865 50677,6917.866,95.437,540.698,538.763,0.0
54099.0,STARLINK-5198,PAYLOAD,2023-09-19 17:17:18,15.08850958,0.0001477,53.2175,62.7688,91.0082,269.108,0.00017516,2.502e-05,0.0,0 STARLINK-5198,1 54099U 22136BA  23262.72034815  .00002502  00000-0  17516-3 0  9998,2 54099  53.2175  62.7688 0001477  91.0082 269.1080 15.08850958 51290,6917.847,95.437,540.734,538.69,0.0
54099.0,STARLINK-5198,PAYLOAD,2023-09-20 10:46:33,15.08834483,0.0001451,53.2169,59.4987,86.8678,273.248,-3.5449e-06,-3.44e-06,0.0,0 STARLINK-5198,1 54099U 22136BA  23263.44899875 -.00000344  00000-0 -35449-5 0  9994,2 54099  53.2169  59.4987 0001451  86.8678 273.2480 15.08834483 51401,6917.897,95.438,540.766,538.758,0.0
54099.0,STARLINK-5198,PAYLOAD,2023-09-20 13:57:19,15.08832555,0.0001331,53.2176,58.904,97.362,262.7524,-3.6811e-05,-8.74e-06,0.0,0 STARLINK-5198,1 54099U 22136BA  23263.58148009 -.00000874  00000-0 -36811-4 0  9996,2 54099  53.2176  58.9040 0001331  97.3620 262.7524 15.08832555 50953,6917.903,95.438,540.689,538.847,0.0
54099.0,STARLINK-5198,PAYLOAD,2023-09-20 15:32:43,15.08832269,0.0001394,53.2178,58.6065,103.8781,256.2367,-4.2776e-05,-9.68e-06,0.0,0 STARLINK-5198,1 54099U 22136BA  23263.64772028 -.00000968  00000-0 -42776-4 0  9998,2 54099  53.2178  58.6065 0001394 103.8781 256.2367 15.08832269 50965,6917.904,95.438,540.733,538.805,0.0
54099.0,STARLINK-5198,PAYLOAD,2023-09-21 13:48:06,15.08841383,0.0001382,53.2182,54.4437,108.5481,251.5662,0.00011183,1.492e-05,0.0,0 STARLINK-5198,1 54099U 22136BA  23264.57507816  .00001492  00000-0  11183-3 0  9990,2 54099  53.2182  54.4437 0001382 108.5481 251.5662 15.08841383 51103,6917.876,95.437,540.697,538.785,0.0
54099.0,STARLINK-5198,PAYLOAD,2023-09-21 16:58:52,15.08848125,0.0001255,53.2177,53.8489,99.5511,260.5623,0.00021509,3.138e-05,0.0,0 STARLINK-5198,1 54099U 22136BA  23264.70755538  .00003138  00000-0  21509-3 0  9993,2 54099  53.2177  53.8489 0001255  99.5511 260.5623 15.08848125 51590,6917.856,95.437,540.589,538.852,0.0
54099.0,STARLINK-5198,PAYLOAD,2023-09-22 08:52:44,15.08841399,0.0001263,53.2184,50.8775,99.7699,260.3436,0.00031926,4.797e-05,0.0,0 STARLINK-5198,1 54099U 22136BA  23265.36995925  .00004797  00000-0  31926-3 0  9998,2 54099  53.2184  50.8775 0001263  99.7699 260.3436 15.08841399 51698,6917.876,95.437,540.615,538.867,0.0
54099.0,STARLINK-5198,PAYLOAD,2023-09-22 13:38:53,15.08849264,0.0001215,53.2189,49.9851,106.2438,253.8687,-0.00020433,-3.539e-05,0.0,0 STARLINK-5198,1 54099U 22136BA  23265.56867458 -.00003539  00000-0 -20433-3 0  9995,2 54099  53.2189  49.9851 0001215 106.2438 253.8687 15.08849264 51255,6917.852,95.437,540.558,538.877,0.0
54099.0,STARLINK-5198,PAYLOAD,2023-09-22 16:49:40,15.08839045,0.000143,53.2191,49.3909,103.8566,256.2585,0.00020762,3.018e-05,0.0,0 STARLINK-5198,1 54099U 22136BA  23265.70116090  .00003018  00000-0  20762-3 0  9995,2 54099  53.2191  49.3909 0001430 103.8566 256.2585 15.08839045 51272,6917.883,95.438,540.738,538.759,0.0
54099.0,STARLINK-5198,PAYLOAD,2023-09-23 02:21:58,15.08840196,0.000114,53.2178,47.6054,91.5061,268.6061,7.0153e-05,8.29e-06,0.0,0 STARLINK-5198,1 54099U 22136BA  23266.09859935  .00000829  00000-0  70153-4 0  9997,2 54099  53.2178  47.6054 0001140  91.5061 268.6061 15.08840196 51804,6917.88,95.438,540.533,538.956,0.0
54099.0,STARLINK-5198,PAYLOAD,2023-09-23 13:29:40,15.08840816,0.0001228,53.2181,45.5237,94.6795,265.4338,-3.9966e-05,-9.24e-06,0.0,0 STARLINK-5198,1 54099U 22136BA  23266.56227920 -.00000924  00000-0 -39966-4 0  9997,2 54099  53.2181  45.5237 0001228  94.6795 265.4338 15.08840816 51400,6917.878,95.438,540.592,538.893,0.0
54099.0,STARLINK-5198,PAYLOAD,2023-09-24 10:09:41,15.08836133,0.0001198,53.2181,41.6576,90.4015,269.7114,4.2306e-05,3.85e-06,0.0,0 STARLINK-5198,1 54099U 22136BA  23267.42340203  .00000385  00000-0  42306-4 0  9994,2 54099  53.2181  41.6576 0001198  90.4015 269.7114 15.08836133 52001,6917.892,95.438,540.586,538.928,0.0
54099.0,STARLINK-5198,PAYLOAD,2023-09-24 13:20:28,15.08838994,0.0001215,53.2185,41.0631,94.2536,265.8595,7.4012e-05,8.9e-06,0.0,0 STARLINK-5198,1 54099U 22136BA  23267.55588039  .00000890  00000-0  74012-4 0  9999,2 54099  53.2185  41.0631 0001215  94.2536 265.8595 15.08838994 51557,6917.883,95.438,540.589,538.908,0.0
54099.0,STARLINK-5198,PAYLOAD,2023-09-24 16:31:13,15.08850737,0.00013,53.2188,40.4665,78.7529,281.3609,0.00013445,1.853e-05,0.0,0 STARLINK-5198,1 54099U 22136BA  23267.68835543  .00001853  00000-0  13445-3 0  9990,2 54099  53.2188  40.4665 0001300  78.7529 281.3609 15.08850737 52047,6917.848,95.437,540.612,538.813,0.0
54099.0,STARLINK-5198,PAYLOAD,2023-09-25 02:03:33,15.08840905,0.0001384,53.2187,38.686,91.6666,268.4485,0.00010054,1.313e-05,0.0,0 STARLINK-5198,1 54099U 22136BA  23268.08580024  .00001313  00000-0  10054-3 0  9990,2 54099  53.2187  38.6860 0001384  91.6666 268.4485 15.08840905 52101,6917.878,95.437,540.7,538.785,0.0
54099.0,STARLINK-5198,PAYLOAD,2023-09-25 14:46:38,15.08844711,0.0001116,53.217,36.305,97.5431,262.5688,0.00019125,2.758e-05,0.0,0 STARLINK-5198,1 54099U 22136BA  23268.61571810  .00002758  00000-0  19125-3 0  9994,2 54099  53.2170  36.3050 0001116  97.5431 262.5688 15.08844711 51712,6917.866,95.437,540.503,538.959,0.0
54099.0,STARLINK-5198,PAYLOAD,2023-09-25 16:22:00,15.08855439,0.0001283,53.2176,36.0066,90.9542,269.1597,0.00023958,3.529e-05,0.0,0 STARLINK-5198,1 54099U 22136BA  23268.68195284  .00003529  00000-0  23958-3 0  9994,2 54099  53.2176  36.0066 0001283  90.9542 269.1597 15.08855439 52191,6917.833,95.437,540.586,538.811,0.0
54099.0,STARLINK-5198,PAYLOAD,2023-09-26 14:37:25,15.08837499,0.0001423,53.218,31.8431,85.7711,274.3444,5.3031e-05,5.56e-06,0.0,0 STARLINK-5198,1 54099U 22136BA  23269.60932539  .00000556  00000-0  53031-4 0  9992,2 54099  53.2180  31.8431 0001423  85.7711 274.3444 15.08837499 51869,6917.888,95.438,540.737,538.769,0.0
54099.0,STARLINK-5198,PAYLOAD,2023-09-26 17:48:11,15.08843053,0.0001477,53.2179,31.2479,89.0276,271.0886,0.00019043,2.744e-05,0.0,0 STARLINK-5198,1 54099U 22136BA  23269.74180404  .00002744  00000-0  19043-3 0  9998,2 54099  53.2179  31.2479 0001477  89.0276 271.0886 15.08843053 52357,6917.871,95.437,540.758,538.714,0.0
54099.0,STARLINK-5198,PAYLOAD,2023-09-27 01:45:07,15.08835953,0.000151,53.2181,29.7589,85.7636,274.3529,0.00018263,2.619e-05,0.0,0 STARLINK-5198,1 54099U 22136BA  23270.07300877  .00002619  00000-0  18263-3 0  9998,2 54099  53.2181  29.7589 0001510  85.7636 274.3529 15.08835953 52401,6917.893,95.438,540.802,538.713,0.0
54099.0,STARLINK-5198,PAYLOAD,2023-09-27 12:52:50,15.08837918,0.0001394,53.2185,27.6767,91.9838,268.1314,0.00024652,3.637e-05,0.0,0 STARLINK-5198,1 54099U 22136BA  23270.53669005  .00003637  00000-0  24652-3 0  9990,2 54099  53.2185  27.6767 0001394  91.9838 268.1314 15.08837918 52005,6917.887,95.438,540.716,538.787,0.0
54099.0,STARLINK-5198,PAYLOAD,2023-09-28 12:43:36,15.0884649,0.0001439,53.2183,23.2191,84.0563,276.0593,0.00023601,3.471e-05,0.0,0 STARLINK-5198,1 54099U 22136BA  23271.53028874  .00003471  00000-0  23601-3 0  9993,2 54099  53.2183  23.2191 0001439  84.0563 276.0593 15.08846490 52624,6917.861,95.437,540.721,538.73,0.0
54099.0,STARLINK-5198,PAYLOAD,2023-09-29 10:59:00,15.08843533,0.0001482,53.2191,19.0592,87.315,272.8012,0.00015524,2.184e-05,0.0,0 STARLINK-5198,1 54099U 22136BA  23272.45764966  .00002184  00000-0  15524-3 0  9999,2 54099  53.2191  19.0592 0001482  87.3150 272.8012 15.08843533 52767,6917.87,95.437,540.76,538.709,0.0
54099.0,STARLINK-5198,PAYLOAD,2023-09-29 14:09:46,15.08850439,0.0001498,53.2188,18.4641,92.1491,267.9672,0.00015544,2.187e-05,0.0,0 STARLINK-5198,1 54099U 22136BA  23272.59012544  .00002187  00000-0  15544-3 0  9997,2 54099  53.2188  18.4641 0001498  92.1491 267.9672 15.08850439 52311,6917.848,95.437,540.75,538.677,0.0
54099.0,STARLINK-5198,PAYLOAD,2023-09-30 10:49:47,15.0884588,0.0001607,53.2195,14.599,88.1982,271.9194,0.00011587,1.557e-05,0.0,0 STARLINK-5198,1 54099U 22136BA  23273.45124602  .00001557  00000-0  11587-3 0  9995,2 54099  53.2195  14.5990 0001607  88.1982 271.9194 15.08845880 52919,6917.862,95.437,540.839,538.616,0.0
